1 00005U 58002B   13201.02933398  .00000231  00000-0  29080-3 0  1163
2 00005 034.2491 082.5631 1850197 155.7922 214.2121 10.84331002931230
